40P/Vaisala,e,11.4694,133.7796,47.3946,4.953266,0.0894060,0.62967895,234.3470,01/12.0/2022,2000,g  5.5,12.0
# From MPC105240
41P/Tuttle-Giacobini-Kresak,e,9.2208,140.9887,62.2249,3.087915,0.1816378,0.65996119,315.6043,01/12.0/2022,2000,g 10.0,16.0
# From MPC 94283
42P/Neujmin,e,3.9914,150.1752,147.2308,4.873217,0.0916179,0.58513978,225.9928,01/12.0/2022,2000,g 13.0,6.0
# From MPC102956
43P/Wolf-Harrington,e,9.3347,244.1057,224.1118,4.316654,0.1098964,0.43556408,216.8726,01/12.0/2022,2000,g  8.0,6.0
# From MPEC 2021-TD0
44P/Reinmuth,e,5.8974,286.4803,58.1051,3.691118,0.1389848,0.42765713,345.9131,01/12.0/2022,2000,g  8.3,6.0
# From MPC103849
45P/Honda-Mrkos-Pajdusakova,e,4.3228,87.7051,327.9068,3.052870,0.1847743,0.81749425,340.8671,01/12.0/2022,2000,g 13.5,8.0
# From MPEC 2021-O56
46P/Wirtanen,e,11.7457,82.1571,356.3336,3.091867,0.1812896,0.65841920,204.3002,01/12.0/2022,2000,g 14.0,6.0
# From MPEC 2021-S45
47P/Ashbrook-Jackson,e,13.0409,356.9211,357.6700,4.123505,0.1177075,0.31853881,197.1098,01/12.0/2022,2000,g 12.5,4.0
# From MPEC 2021-F20
48P/Johnson,e,12.2044,110.1175,216.6858,3.501027,0.1504565,0.42737826,187.7559,01/12.0/2022,2000,g 12.4,4.0
# From MPEC 2021-F20
49P/Arend-Rigaux,e,19.0468,118.7958,332.9321,3.569715,0.1461349,0.59828308,186.7598,01/12.0/2022,2000,g 13.4,4.0
# From MPEC 2015-S97
50P/Arend,e,19.1006,355.1774,49.3160,4.088296,0.1192314,0.52924325,258.4021,01/12.0/2022,2000,g  9.5,6.0
# From NK 3014
51P-A/Harrington,e,5.4261,83.6755,269.2684,3.707762,0.1380499,0.54350243,323.4240,01/12.0/2022,2000,g 10.0,8.0
# From NK 3013
51P-D/Harrington,e,5.4268,83.6604,269.3068,3.706784,0.1381046,0.54343270,323.7068,01/12.0/2022,2000,g 16.0,8.0
# From MPEC 2022-A21
52P/Harrington-Abell,e,10.2316,336.8380,139.5913,3.864903,0.1297168,0.54016409,12.8173,01/12.0/2022,2000,g 13.5,6.0
# From MPC100283
53P/Van Biesbroeck,e,6.6096,148.8105,134.5006,5.429023,0.0779151,0.55144065,162.2582,01/12.0/2022,2000,g  7.7,4.8
# From MPC 89011
54P/de Vico-Swift-NEAT,e,6.0646,358.8169,1.8085,3.790651,0.1335468,0.42623412,231.0427,01/12.0/2022,2000,g  9.0,4.0
# From MPC 31070
55P/Tempel-Tuttle,e,162.4578,235.4105,172.4895,10.35619,0.0295736,0.90586304,259.0326,01/12.0/2022,2000,g  9.0,4.0
# From MPC101100
56P/Slaughter-Burnham,e,8.1612,345.9955,43.9863,5.068225,0.0863814,0.50792291,172.8931,01/12.0/2022,2000,g  8.5,6.0
# From MPEC 2022-A21
57P/duToit-Neujmin-Delporte,e,2.8513,188.7687,115.2567,3.447527,0.1539723,0.50107663,13.3339,01/12.0/2022,2000,g 12.5,6.0
# From MPEC 2021-O56
58P/Jackson-Neujmin,e,13.1087,159.0746,200.5010,4.086232,0.1193217,0.66280517,70.9196,01/12.0/2022,2000,g 15.5,6.0
# From MPEC 2021-F20
59P/Kearns-Kwee,e,9.3416,312.8244,127.5128,4.485672,0.1037439,0.47542290,125.8811,01/12.0/2022,2000,g  7.0,6.0
# From MPEC 2021-F20
60P/Tsuchinshan,e,3.5846,267.5049,216.9814,3.524475,0.1489575,0.53410990,168.3981,01/12.0/2022,2000,g 11.5,6.0
# From MPEC 2015-Q71
61P/Shajn-Schaldach,e,5.9992,162.9702,221.7693,3.689304,0.1390873,0.42406856,320.3465,01/12.0/2022,2000,g  6.0,10.0
# From MPC109147
62P/Tsuchinshan,e,4.7410,68.9888,47.2785,3.360797,0.1599708,0.62691660,246.2034,01/12.0/2022,2000,g  8.0,10.0
# From MPC 84320
63P/Wild,e,19.7289,358.0188,169.0617,5.608070,0.0742137,0.64895238,238.1396,01/12.0/2022,2000,g 10.5,6.0
# From MPEC 2021-F20
64P/Swift-Gehrels,e,8.9493,299.9735,97.0846,4.453179,0.1048815,0.68824457,122.1263,01/12.0/2022,2000,g 13.4,4.0
# From MPEC 2021-Y10
65P/Gunn,e,9.1776,62.0065,213.9040,3.887139,0.1286053,0.24904179,199.0434,01/12.0/2022,2000,g 11.4,4.0
# From MPEC 2021-F20
66P/duToit,e,18.6437,21.8048,257.4311,6.068393,0.0659316,0.78645064,87.9637,01/12.0/2022,2000,g 15.0,4.0
# From MPEC 2022-A21
67P/Churyumov-Gerasimenko,e,3.8716,36.3333,22.1370,3.455921,0.1534117,0.64969345,10.8822,01/12.0/2022,2000,g 11.0,4.0
# From MPC 75716
68P/Klemola,e,11.1109,175.0513,153.1836,4.955802,0.0893374,0.63758091,71.0089,01/12.0/2022,2000,g 10.0,4.0
# From MPC114607
69P/Taylor,e,22.0367,104.8181,343.4146,3.886234,0.1286503,0.41331908,132.6218,01/12.0/2022,2000,g  9.5,12.0
# From MPEC 2022-A21
70P/Kojima,e,6.5979,119.2680,1.8260,3.678200,0.1397176,0.45380973,9.7650,01/12.0/2022,2000,g 11.0,6.0
# From MPC107051
71P/Clark,e,9.4373,59.4026,209.0633,3.138261,0.1772843,0.49379352,293.5836,01/12.0/2022,2000,g  9.8,6.0
# From MPC 89011
72P/Denning-Fujikawa,e,10.9461,26.6960,346.7043,4.309658,0.1101640,0.81857043,302.7240,01/12.0/2022,2000,g 17.5,10.0
# From MPC106348
73P/Schwassmann-Wachmann,e,11.2276,69.6158,199.4794,3.092637,0.1812219,0.68540647,319.0990,01/12.0/2022,2000,g 11.5,6.0
# From MPC106348
73P-T/Schwassmann-Wachmann,e,11.2296,69.6184,199.4608,3.094204,0.1810842,0.68560863,318.8584,01/12.0/2022,2000,g 11.5,6.0
# From MPEC 2021-UA9
74P/Smirnova-Chernykh,e,5.9884,64.3764,121.7662,4.420979,0.1060294,0.13164385,140.2979,01/12.0/2022,2000,g  5.0,6.0
# From MPEC 2021-F20
76P/West-Kohoutek-Ikemura,e,30.4661,84.1097,359.9496,3.471766,0.1523626,0.53828957,123.2490,01/12.0/2022,2000,g 15.5,4.0
# From MPEC 2022-A21
77P/Longmore,e,24.3181,14.7729,196.7931,3.622920,0.1429275,0.35190407,296.2127,01/12.0/2022,2000,g  7.0,8.0
# From MPEC 2021-O56
78P/Gehrels,e,6.2536,210.5152,192.6333,3.738176,0.1363686,0.46239329,138.3885,01/12.0/2022,2000,g  5.5,8.0
# From MPC 94675
79P/du Toit-Hartley,e,3.1479,280.5340,281.7790,2.943181,0.1951994,0.61885640,237.6929,01/12.0/2022,2000,g 16.0,4.0
# From MPEC 2014-P41
80P/Peters-Hartley,e,29.9240,259.8068,339.2466,4.024548,0.1220755,0.59868375,319.6100,01/12.0/2022,2000,g  9.0,4.0
# From MPEC 2022-A21
81P/Wild,e,3.2366,136.0985,41.6544,3.452711,0.1536256,0.53709454,308.1250,01/12.0/2022,2000,g  7.0,6.0
# From MPC133426
82P/Gehrels,e,1.1290,239.3119,226.5353,4.134379,0.1172435,0.12177850,152.1864,01/12.0/2022,2000,g 15.0,4.0
# From MPEC 2020-FB5
84P/Giclas,e,7.5511,108.1661,281.5861,3.549525,0.1473834,0.51586650,86.5193,01/12.0/2022,2000,g  9.5,8.0
# From MPC109147
86P/Wild,e,15.4752,72.3558,179.4045,3.601072,0.1442302,0.37222425,356.1638,01/12.0/2022,2000,g 11.0,6.0
# From MPEC 2020-SI8
87P/Bus,e,2.6406,181.3341,25.9698,3.454913,0.1534788,0.39274691,93.5494,01/12.0/2022,2000,g  7.2,10.0
# From MPEC 2022-A21
88P/Howell,e,4.3831,56.6790,235.9137,3.105369,0.1801085,0.56409381,85.0975,01/12.0/2022,2000,g 11.0,6.0
# From MPC100283
89P/Russell,e,12.0698,41.3627,250.3753,3.753911,0.1355121,0.40841880,251.0087,01/12.0/2022,2000,g 11.5,6.0
# From MPC107051
90P/Gehrels,e,9.6496,13.2047,29.0538,6.051823,0.0662026,0.51050443,110.3533,01/12.0/2022,2000,g  8.5,6.0
# From MPEC 2021-S45
91P/Russell,e,14.0762,247.6657,355.1433,3.900440,0.1279480,0.33220450,54.7261,01/12.0/2022,2000,g  7.5,6.0
# From MPEC 2014-J58
92P/Sanguin,e,19.5039,181.3636,163.7753,5.343768,0.0797871,0.66103353,199.8085,01/12.0/2022,2000,g 12.0,6.0
# From NK 2707
93P/Lovas,e,12.2036,339.6479,74.8077,4.381674,0.1074593,0.61298346,191.0092,01/12.0/2022,2000,g  9.0,4.0
# From MPEC 2021-Y10
94P/Russell,e,6.1880,70.8582,92.4451,3.507805,0.1500206,0.36507929,285.8546,01/12.0/2022,2000,g  9.0,6.0
# From MPC 75717
95P/Chiron,e,6.9251,209.2885,339.6246,13.70682,0.0194222,0.37665678,184.6218,01/12.0/2022,2000,g  6.5,2.0
# From MPEC 2017-T14
96P/Machholz,e,57.5246,93.9676,14.7481,3.029076,0.1869558,0.96157670,288.1863,01/12.0/2022,2000,g  9.0,4.0
# From MPEC 2022-A21
97P/Metcalf-Brewington,e,17.9520,184.0778,229.9618,4.759597,0.0949181,0.45998966,356.7234,01/12.0/2022,2000,g  5.5,6.0
# From MPEC 2021-W31
98P/Takamizawa,e,10.5600,114.6974,157.8539,3.796774,0.1332239,0.56228449,49.5855,01/12.0/2022,2000,g  9.0,8.0
# From MPEC 2022-A21
99P/Kowal,e,4.3394,28.1021,174.9440,6.106845,0.0653099,0.22937414,354.0733,01/12.0/2022,2000,g  4.5,6.0
# From MPEC 2013-O31
100P/Hartley,e,25.5646,37.6899,181.9767,3.432670,0.1549730,0.41224483,327.3055,01/12.0/2022,2000,g  9.0,4.0
# From MPEC 2021-W31
101P/Chernykh,e,5.0522,116.2236,277.7167,5.805333,0.0704634,0.59616218,51.4555,01/12.0/2022,2000,g 10.0,4.8
# From MPEC 2021-S45
102P/Shoemaker,e,25.8845,339.3653,20.5833,3.814080,0.1323182,0.45716531,46.9025,01/12.0/2022,2000,g  6.5,8.0
# From MPEC 2018-HA5
103P/Hartley,e,13.6063,219.7392,181.2845,3.475668,0.1521061,0.69349102,262.8576,01/12.0/2022,2000,g  8.5,8.0
# From MPEC 2022-A21
104P/Kowal,e,5.7012,207.2121,227.2533,3.206026,0.1716934,0.66529338,0.0643,01/12.0/2022,2000,g 16.0,4.0
# From MPC109147
105P/Singer Brewster,e,9.1691,192.4039,46.4799,3.468137,0.1526018,0.40915603,191.0536,01/12.0/2022,2000,g 11.5,6.0
# From MPEC 2022-A21
106P/Schuster,e,19.5359,48.8841,353.6768,3.763107,0.1350157,0.59376852,19.7416,01/12.0/2022,2000,g 14.0,4.8
# From MPEC 2015-M77
107P/Wilson-Harrington,e,2.7992,266.7796,95.4370,2.624777,0.2317744,0.63169465,307.9273,01/12.0/2022,2000,g  9.0,4.0
# From MPEC 2022-A21
108P/Ciffreo,e,11.4365,50.2908,354.4244,3.737857,0.1363861,0.55581561,16.8987,01/12.0/2022,2000,g  8.0,12.0
# From  105, 420
109P/Swift-Tuttle,e,113.9515,139.0670,152.9576,26.16318,0.0073649,0.96272012,78.2778,01/12.0/2022,2000,g  4.0,6.0
# From MPEC 2022-A21
110P/Hartley,e,11.7062,287.5353,167.4465,3.602788,0.1441272,0.31838110,12.3503,01/12.0/2022,2000,g  1.0,12.0
# From MPC 75718
111P/Helin-Roman-Crockett,e,4.2264,89.7645,0.9883,4.148838,0.1166311,0.10635314,24.5371,01/12.0/2022,2000,g  5.0,8.0
# From MPEC 2021-S45
112P/Urata-Niijima,e,24.2028,31.8321,21.4732,3.525208,0.1489111,0.59010432,104.8156,01/12.0/2022,2000,g 14.0,6.0
# From MPEC 2022-A21
113P/Spitaler,e,5.2902,306.6839,115.4885,3.692296,0.1389183,0.41993878,340.4998,01/12.0/2022,2000,g 13.5,4.0
# From MPEC 2021-S45
114P/Wiseman-Skiff,e,18.2769,271.0405,172.7553,3.544340,0.1477070,0.55492146,107.6660,01/12.0/2022,2000,g 11.5,6.0
# From MPEC 2021-UA9
115P/Maury,e,11.6774,176.0092,120.9849,4.271870,0.1116290,0.51841900,59.3258,01/12.0/2022,2000,g 10.5,6.0
# From MPEC 2022-A21
116P/Wild,e,3.6034,20.9813,173.3071,3.490614,0.1511302,0.37060581,331.8940,01/12.0/2022,2000,g  2.5,10.0
# From MPEC 2021-W31
117P/Helin-Roman-Alu,e,8.7038,58.8410,222.9174,4.083076,0.1194601,0.25553428,338.8961,01/12.0/2022,2000,g  2.5,8.0
